CCSDS_OMM_VERS = 2.0
CREATION_DATE  = 
ORIGINATOR     = 

OBJECT_NAME    = STARLINK-36427
OBJECT_ID      = 2026-002AE
CENTER_NAME    = EARTH
REF_FRAME      = TEME
TIME_SYSTEM    = UTC
MEAN_ELEMENT_THEORY = SGP/SGP4

EPOCH          = 2026-01-17T06:00:02.000160
MEAN_MOTION    = 15.89409910
ECCENTRICITY   = .00015752
INCLINATION    = 42.9957
RA_OF_ASC_NODE = 261.3768
ARG_OF_PERICENTER = 276.1083
MEAN_ANOMALY   = 225.0505

EPHEMERIS_TYPE = 0
CLASSIFICATION_TYPE = U
NORAD_CAT_ID   = 67333
ELEMENT_SET_NO = 999
REV_AT_EPOCH   = 320
BSTAR          = -.63264223E-2
MEAN_MOTION_DOT = -.1667103E-1
MEAN_MOTION_DDOT = 0

CCSDS_OMM_VERS = 2.0
CREATION_DATE  = 
ORIGINATOR     = 

OBJECT_NAME    = STARLINK-35343
OBJECT_ID      = 2026-003A
CENTER_NAME    = EARTH
REF_FRAME      = TEME
TIME_SYSTEM    = UTC
MEAN_ELEMENT_THEORY = SGP/SGP4

EPOCH          = 2026-01-17T06:00:02.000160
MEAN_MOTION    = 15.93687937
ECCENTRICITY   = .00017133
INCLINATION    = 42.9980
RA_OF_ASC_NODE = 165.6183
ARG_OF_PERICENTER = 271.2489
MEAN_ANOMALY   = 142.1114

EPHEMERIS_TYPE = 0
CLASSIFICATION_TYPE = U
NORAD_CAT_ID   = 67334
ELEMENT_SET_NO = 999
REV_AT_EPOCH   = 234
BSTAR          = -.3437054E-2
MEAN_MOTION_DOT = -.1290154E-1
MEAN_MOTION_DDOT = .48940714E-3

CCSDS_OMM_VERS = 2.0
CREATION_DATE  = 
ORIGINATOR     = 

OBJECT_NAME    = STARLINK-36486
OBJECT_ID      = 2026-003B
CENTER_NAME    = EARTH
REF_FRAME      = TEME
TIME_SYSTEM    = UTC
MEAN_ELEMENT_THEORY = SGP/SGP4

EPOCH          = 2026-01-17T06:00:02.000160
MEAN_MOTION    = 15.93744117
ECCENTRICITY   = .00017345
INCLINATION    = 42.9980
RA_OF_ASC_NODE = 165.6149
ARG_OF_PERICENTER = 267.7051
MEAN_ANOMALY   = 147.0900

EPHEMERIS_TYPE = 0
CLASSIFICATION_TYPE = U
NORAD_CAT_ID   = 67335
ELEMENT_SET_NO = 999
REV_AT_EPOCH   = 240
BSTAR          = -.34560362E-2
MEAN_MOTION_DOT = -.130104E-1
MEAN_MOTION_DDOT = .49726728E-3

CCSDS_OMM_VERS = 2.0
CREATION_DATE  = 
ORIGINATOR     = 

OBJECT_NAME    = STARLINK-36480
OBJECT_ID      = 2026-003C
CENTER_NAME    = EARTH
REF_FRAME      = TEME
TIME_SYSTEM    = UTC
MEAN_ELEMENT_THEORY = SGP/SGP4

EPOCH          = 2026-01-17T06:00:02.000160
MEAN_MOTION    = 15.93813326
ECCENTRICITY   = .00017683
INCLINATION    = 42.9982
RA_OF_ASC_NODE = 165.6100
ARG_OF_PERICENTER = 269.9732
MEAN_ANOMALY   = 146.7765

EPHEMERIS_TYPE = 0
CLASSIFICATION_TYPE = U
NORAD_CAT_ID   = 67336
ELEMENT_SET_NO = 999
REV_AT_EPOCH   = 240
BSTAR          = -.34693717E-2
MEAN_MOTION_DOT = -.1310772E-1
MEAN_MOTION_DDOT = .50444111E-3

CCSDS_OMM_VERS = 2.0
CREATION_DATE  = 
ORIGINATOR     = 

OBJECT_NAME    = STARLINK-36410
OBJECT_ID      = 2026-003D
CENTER_NAME    = EARTH
REF_FRAME      = TEME
TIME_SYSTEM    = UTC
MEAN_ELEMENT_THEORY = SGP/SGP4

EPOCH          = 2026-01-17T06:00:02.000160
MEAN_MOTION    = 15.93887149
ECCENTRICITY   = .00016606
INCLINATION    = 42.9981
RA_OF_ASC_NODE = 165.6048
ARG_OF_PERICENTER = 273.8108
MEAN_ANOMALY   = 144.8986

EPHEMERIS_TYPE = 0
CLASSIFICATION_TYPE = U
NORAD_CAT_ID   = 67337
ELEMENT_SET_NO = 999
REV_AT_EPOCH   = 240
BSTAR          = -.35198019E-2
MEAN_MOTION_DOT = -.1334759E-1
MEAN_MOTION_DDOT = .52185054E-3

CCSDS_OMM_VERS = 2.0
CREATION_DATE  = 
ORIGINATOR     = 

OBJECT_NAME    = STARLINK-36413
OBJECT_ID      = 2026-003E
CENTER_NAME    = EARTH
REF_FRAME      = TEME
TIME_SYSTEM    = UTC
MEAN_ELEMENT_THEORY = SGP/SGP4

EPOCH          = 2026-01-17T06:00:02.000160
MEAN_MOTION    = 15.93952635
ECCENTRICITY   = .00016434
INCLINATION    = 42.9981
RA_OF_ASC_NODE = 165.6004
ARG_OF_PERICENTER = 268.6794
MEAN_ANOMALY   = 151.8287

EPHEMERIS_TYPE = 0
CLASSIFICATION_TYPE = U
NORAD_CAT_ID   = 67338
ELEMENT_SET_NO = 999
REV_AT_EPOCH   = 240
BSTAR          = -.35376586E-2
MEAN_MOTION_DOT = -.1346082E-1
MEAN_MOTION_DDOT = .53033061E-3

CCSDS_OMM_VERS = 2.0
CREATION_DATE  = 
ORIGINATOR     = 

OBJECT_NAME    = STARLINK-36451
OBJECT_ID      = 2026-003F
CENTER_NAME    = EARTH
REF_FRAME      = TEME
TIME_SYSTEM    = UTC
MEAN_ELEMENT_THEORY = SGP/SGP4

EPOCH          = 2026-01-17T06:00:02.000160
MEAN_MOTION    = 15.94022904
ECCENTRICITY   = .00017192
INCLINATION    = 42.9981
RA_OF_ASC_NODE = 165.5953
ARG_OF_PERICENTER = 272.3657
MEAN_ANOMALY   = 150.0166

EPHEMERIS_TYPE = 0
CLASSIFICATION_TYPE = U
NORAD_CAT_ID   = 67339
ELEMENT_SET_NO = 999
REV_AT_EPOCH   = 240
BSTAR          = -.35816893E-2
MEAN_MOTION_DOT = -.1367714E-1
MEAN_MOTION_DDOT = .54642485E-3

CCSDS_OMM_VERS = 2.0
CREATION_DATE  = 
ORIGINATOR     = 

OBJECT_NAME    = STARLINK-36339
OBJECT_ID      = 2026-003G
CENTER_NAME    = EARTH
REF_FRAME      = TEME
TIME_SYSTEM    = UTC
MEAN_ELEMENT_THEORY = SGP/SGP4

EPOCH          = 2026-01-17T06:00:02.000160
MEAN_MOTION    = 15.94114965
ECCENTRICITY   = .00016335
INCLINATION    = 42.9980
RA_OF_ASC_NODE = 165.5900
ARG_OF_PERICENTER = 270.8273
MEAN_ANOMALY   = 153.8334

EPHEMERIS_TYPE = 0
CLASSIFICATION_TYPE = U
NORAD_CAT_ID   = 67340
ELEMENT_SET_NO = 999
REV_AT_EPOCH   = 240
BSTAR          = -.36964654E-2
MEAN_MOTION_DOT = -.1417868E-1
MEAN_MOTION_DDOT = .58424278E-3

CCSDS_OMM_VERS = 2.0
CREATION_DATE  = 
ORIGINATOR     = 

OBJECT_NAME    = STARLINK-36453
OBJECT_ID      = 2026-003H
CENTER_NAME    = EARTH
REF_FRAME      = TEME
TIME_SYSTEM    = UTC
MEAN_ELEMENT_THEORY = SGP/SGP4

EPOCH          = 2026-01-17T06:00:02.000160
MEAN_MOTION    = 15.94195173
ECCENTRICITY   = .00016128
INCLINATION    = 42.9982
RA_OF_ASC_NODE = 165.5840
ARG_OF_PERICENTER = 275.1153
MEAN_ANOMALY   = 151.7443

EPHEMERIS_TYPE = 0
CLASSIFICATION_TYPE = U
NORAD_CAT_ID   = 67341
ELEMENT_SET_NO = 999
REV_AT_EPOCH   = 240
BSTAR          = -.37717933E-2
MEAN_MOTION_DOT = -.1452542E-1
MEAN_MOTION_DDOT = .61120263E-3

CCSDS_OMM_VERS = 2.0
CREATION_DATE  = 
ORIGINATOR     = 

OBJECT_NAME    = STARLINK-36432
OBJECT_ID      = 2026-003J
CENTER_NAME    = EARTH
REF_FRAME      = TEME
TIME_SYSTEM    = UTC
MEAN_ELEMENT_THEORY = SGP/SGP4

EPOCH          = 2026-01-17T06:00:02.000160
MEAN_MOTION    = 15.94269401
ECCENTRICITY   = .00017565
INCLINATION    = 42.9981
RA_OF_ASC_NODE = 165.5794
ARG_OF_PERICENTER = 269.4565
MEAN_ANOMALY   = 159.3894

EPHEMERIS_TYPE = 0
CLASSIFICATION_TYPE = U
NORAD_CAT_ID   = 67342
ELEMENT_SET_NO = 999
REV_AT_EPOCH   = 239
BSTAR          = -.38284683E-2
MEAN_MOTION_DOT = -.1479927E-1
MEAN_MOTION_DDOT = .63298609E-3

CCSDS_OMM_VERS = 2.0
CREATION_DATE  = 
ORIGINATOR     = 

OBJECT_NAME    = STARLINK-36458
OBJECT_ID      = 2026-003K
CENTER_NAME    = EARTH
REF_FRAME      = TEME
TIME_SYSTEM    = UTC
MEAN_ELEMENT_THEORY = SGP/SGP4

EPOCH          = 2026-01-17T06:00:02.000160
MEAN_MOTION    = 15.94327369
ECCENTRICITY   = .00015799
INCLINATION    = 42.9981
RA_OF_ASC_NODE = 165.5753
ARG_OF_PERICENTER = 269.5178
MEAN_ANOMALY   = 160.9652

EPHEMERIS_TYPE = 0
CLASSIFICATION_TYPE = U
NORAD_CAT_ID   = 67343
ELEMENT_SET_NO = 999
REV_AT_EPOCH   = 240
BSTAR          = -.38601168E-2
MEAN_MOTION_DOT = -.1496543E-1
MEAN_MOTION_DDOT = .64647069E-3

CCSDS_OMM_VERS = 2.0
CREATION_DATE  = 
ORIGINATOR     = 

OBJECT_NAME    = STARLINK-36422
OBJECT_ID      = 2026-003L
CENTER_NAME    = EARTH
REF_FRAME      = TEME
TIME_SYSTEM    = UTC
MEAN_ELEMENT_THEORY = SGP/SGP4

EPOCH          = 2026-01-17T06:00:02.000160
MEAN_MOTION    = 15.94407127
ECCENTRICITY   = .00016307
INCLINATION    = 42.9979
RA_OF_ASC_NODE = 165.5694
ARG_OF_PERICENTER = 266.2270
MEAN_ANOMALY   = 166.5101

EPHEMERIS_TYPE = 0
CLASSIFICATION_TYPE = U
NORAD_CAT_ID   = 67344
ELEMENT_SET_NO = 999
REV_AT_EPOCH   = 239
BSTAR          = -.392458E-2
MEAN_MOTION_DOT = -.1527665E-1
MEAN_MOTION_DDOT = .67192188E-3

