STARLINK-36427          
1 67333U 26002AE  26017.25002315 -.01667103  00000+0 -63264-2 0  9994
2 67333  42.9957 261.3768 0001575 276.1083 225.0505 15.89409910  3208
STARLINK-35343          
1 67334U 26003A   26017.25002315 -.01290154  48941-3 -34371-2 0  9991
2 67334  42.9980 165.6183 0001713 271.2489 142.1114 15.93687937  2343
STARLINK-36486          
1 67335U 26003B   26017.25002315 -.01301040  49727-3 -34560-2 0  9992
2 67335  42.9980 165.6149 0001734 267.7051 147.0900 15.93744117  2402
STARLINK-36480          
1 67336U 26003C   26017.25002315 -.01310772  50444-3 -34694-2 0  9991
2 67336  42.9982 165.6100 0001768 269.9732 146.7765 15.93813326  2403
STARLINK-36410          
1 67337U 26003D   26017.25002315 -.01334759  52185-3 -35198-2 0  9997
2 67337  42.9981 165.6048 0001660 273.8108 144.8986 15.93887149  2404
STARLINK-36413          
1 67338U 26003E   26017.25002315 -.01346082  53033-3 -35377-2 0  9992
2 67338  42.9981 165.6004 0001643 268.6794 151.8287 15.93952635  2406
STARLINK-36451          
1 67339U 26003F   26017.25002315 -.01367714  54642-3 -35817-2 0  9994
2 67339  42.9981 165.5953 0001719 272.3657 150.0166 15.94022904  2408
STARLINK-36339          
1 67340U 26003G   26017.25002315 -.01417868  58424-3 -36965-2 0  9999
2 67340  42.9980 165.5900 0001633 270.8273 153.8334 15.94114965  2400
STARLINK-36453          
1 67341U 26003H   26017.25002315 -.01452542  61120-3 -37718-2 0  9992
2 67341  42.9982 165.5840 0001612 275.1153 151.7443 15.94195173  2406
STARLINK-36432          
1 67342U 26003J   26017.25002315 -.01479927  63299-3 -38285-2 0  9998
2 67342  42.9981 165.5794 0001756 269.4565 159.3894 15.94269401  2394
STARLINK-36458          
1 67343U 26003K   26017.25002315 -.01496543  64647-3 -38601-2 0  9992
2 67343  42.9981 165.5753 0001579 269.5178 160.9652 15.94327369  2404
STARLINK-36422          
1 67344U 26003L   26017.25002315 -.01527665  67192-3 -39246-2 0  9997
2 67344  42.9979 165.5694 0001630 266.2270 166.5101 15.94407127  2391
